0 MIDAS 4 DEB
1 02009U 61028E   13283.14433110 -.00000003  00000-0  00000+0 0   626
2 02009 095.8461 334.2703 0122486 124.3753 262.4577 08.68990237528040
0 MIDAS 4 DEB
1 02009U 61028E   13285.60477525 -.00000003  00000-0  00000+0 0   638
2 02009 095.8453 334.7886 0122489 121.9749 039.6099 08.68990291528255
0 MIDAS 4 DEB
1 02009U 61028E   13289.63189345 -.00000003  00000-0  00000+0 0   646
2 02009 095.8443 335.6367 0122440 118.0351 037.8936 08.68990332528606
0 MIDAS 4 DEB
1 02009U 61028E   13294.07969861 -.00000003  00000-0  00000+0 0   650
2 02009 095.8431 336.5731 0122472 113.6817 272.2442 08.68990233528990
